OBJECT_NAME,OBJECT_ID,EPOCH,MEAN_MOTION,ECCENTRICITY,INCLINATION,RA_OF_ASC_NODE,ARG_OF_PERICENTER,MEAN_ANOMALY,EPHEMERIS_TYPE,CLASSIFICATION_TYPE,NORAD_CAT_ID,ELEMENT_SET_NO,REV_AT_EPOCH,BSTAR,MEAN_MOTION_DOT,MEAN_MOTION_DDOT
CHINASAT 9B,2021-080A,2026-07-21T20:24:23.993280,1.00270380,.00026471,0.0456,245.1283,253.8482,208.1378,0,U,49125,999,1799,0,-.31E-5,0
SHIJIAN-21 (SJ-21),2021-094A,2026-07-23T14:28:53.968224,1.00274710,.0051462,5.1967,60.9554,168.8369,56.7974,0,U,49330,999,572,0,-.347E-5,0
SES-17,2021-095A,2026-07-23T12:39:55.993824,1.00269688,.00011594,0.0212,48.4248,62.6423,313.0843,0,U,49332,999,1821,0,-.267E-5,0
SYRACUSE 4A,2021-095B,2026-07-23T13:12:00.418176,1.00270178,.00014897,0.0244,63.2952,54.8943,66.6008,0,U,49333,999,1831,0,0,0
QZS-1R (MICHIBIKI-1R),2021-096A,2026-07-23T13:00:38.746368,1.00242971,.07556224,37.5340,79.0424,272.3546,275.8173,0,U,49336,999,1737,0,-.328E-5,0
ZHONGXING-1D,2021-114A,2026-07-23T15:18:54.176256,1.00273139,.00001916,0.0344,226.7739,100.8501,333.6421,0,U,49505,999,1718,0,-.331E-5,0
STPSAT-6,2021-118A,2026-07-23T12:32:16.939392,1.00271261,.00007746,0.4117,85.0661,262.0049,30.4299,0,U,49817,999,1693,0,-.4E-6,0
EXPRESS AMU-7,2021-123A,2026-07-23T13:40:22.511136,1.00272229,.00003104,0.0283,277.2862,101.6296,272.4774,0,U,50001,999,1690,0,-.238E-5,0
EXPRESS AMU-3,2021-123B,2026-07-22T21:05:29.908896,1.00272483,.00001762,0.0084,297.0369,60.1577,2.7934,0,U,50002,999,738,0,-.317E-5,0
TIANLIAN 2-02,2021-124A,2026-07-22T20:41:17.143008,1.00272928,.00014432,0.8913,85.5687,149.0671,187.2502,0,U,50005,999,1697,0,-.11E-6,0
TURKSAT 5B,2021-126A,2026-07-23T08:33:38.785824,1.00271147,.00020213,0.0707,338.3290,20.5146,112.6294,0,U,50212,999,1666,0,.151E-5,0
INMARSAT 6-F1,2021-128A,2026-07-23T13:22:54.187104,1.00269400,.00003568,0.0254,57.9901,33.2473,134.5291,0,U,50319,999,1662,0,0,0
SHIYAN-12 01 (SY-12 01),2021-129A,2026-07-22T06:20:25.153728,1.00055591,.0002594,3.7626,79.4374,292.5409,54.8525,0,U,50321,999,1684,0,.142E-5,0
SHIYAN-12 02 (SY-12 02),2021-129B,2026-07-22T12:48:38.790720,1.00474110,.0003285,3.7622,79.4327,66.3052,102.4546,0,U,50322,999,1685,0,-.361E-5,0
TJS-9,2021-135A,2026-07-23T15:20:53.985408,1.00269945,.00023836,0.0656,99.2836,339.3403,230.2025,0,U,50574,999,1679,0,-.294E-5,0
GOES 18,2022-021A,2026-07-23T12:22:38.635680,1.00271259,.00005383,0.0165,75.4696,70.2238,204.2110,0,U,51850,999,695,0,0,0
ZHONGXING-6D,2022-038A,2026-07-19T19:49:46.791264,1.00267596,.00007886,0.0045,101.1810,94.3887,164.4279,0,U,52255,999,1575,0,0,0
NILESAT 301,2022-061A,2026-07-23T07:49:05.815200,1.00270882,.00036885,0.0515,334.6891,107.2445,329.3703,0,U,52817,999,1509,0,-.54E-6,0
CMS-02 (GSAT-24),2022-067A,2026-07-23T13:22:46.698816,1.00272606,.00007376,0.0525,246.9808,124.7941,213.2029,0,U,52903,999,1497,0,-.16E-5,0
MEASAT 3D,2022-067B,2026-07-23T13:25:08.971968,1.00271941,.00003174,0.0604,291.6936,185.2645,117.1131,0,U,52904,999,1501,0,-.237E-5,0
SES-22,2022-071A,2026-07-23T12:14:38.707008,1.00270287,.00013656,0.0300,282.8647,181.3738,241.6531,0,U,52933,999,788,0,.109E-5,0
WFOV (USA 332),2022-073A,2026-07-23T13:00:38.746368,1.00273768,.00008656,3.8013,78.0667,179.1115,358.5752,0,U,52940,999,1473,0,-.361E-5,0
TIANLIAN 2-03,2022-078A,2026-07-23T13:02:08.864160,1.00270303,.00006376,0.7606,77.5721,33.5433,36.2848,0,U,53100,999,1491,0,.76E-6,0
SBIRS GEO-6 (USA 336),2022-092A,2026-07-23T14:02:51.550368,1.00271962,.00020603,3.1976,318.0935,155.9525,176.9814,0,U,53355,999,1459,0,-.283E-5,0
EUTELSAT KONNECT VHTS,2022-110A,2026-07-23T12:59:54.079296,1.00272192,.00030547,0.0580,99.4268,353.1091,46.4198,0,U,53765,999,720,0,.22E-6,0
ZHONGXING-1E,2022-112A,2026-07-21T15:27:20.268576,1.00272538,.00006756,0.0431,226.7079,37.4095,348.5332,0,U,53813,999,1419,0,-.148E-5,0
SES-20,2022-123A,2026-07-23T06:47:35.260800,1.00271020,.00023293,0.0132,70.2484,37.0133,192.5454,0,U,53960,999,1389,0,-.96E-6,0
SES-21,2022-123B,2026-07-23T12:14:38.707008,1.00269755,.00008785,0.0229,35.8178,90.4612,227.6265,0,U,53961,999,757,0,.74E-6,0
GALAXY 33 (G-33),2022-128A,2026-07-23T14:27:20.703744,1.00271354,.00020414,0.0156,17.2912,96.7538,271.1186,0,U,54026,999,1410,0,.84E-6,0
GALAXY 34 (G-34),2022-128B,2026-07-23T12:22:20.179776,1.00270844,.0001745,0.0096,46.9851,68.7858,242.0534,0,U,54027,999,1427,0,.64E-6,0
ANGOSAT 2,2022-131A,2026-07-23T00:02:38.584608,1.00273888,.0000237,0.0178,127.9901,2.4626,193.9540,0,U,54033,999,1383,0,.14E-5,0
