CHINASAT 9B             
1 49125U 21080A   26202.85027770 -.00000310  00000+0  00000+0 0  9993
2 49125   0.0456 245.1283 0002647 253.8482 208.1378  1.00270380 17990
SHIJIAN-21 (SJ-21)      
1 49330U 21094A   26204.60340241 -.00000347  00000+0  00000+0 0  9992
2 49330   5.1967  60.9554 0051462 168.8369  56.7974  1.00274710  5721
SES-17                  
1 49332U 21095A   26204.52773141 -.00000267  00000+0  00000+0 0  9996
2 49332   0.0212  48.4248 0001159  62.6423 313.0843  1.00269688 18211
SYRACUSE 4A             
1 49333U 21095B   26204.55000484  .00000000  00000+0  00000+0 0  9997
2 49333   0.0244  63.2952 0001489  54.8943  66.6008  1.00270178 18311
QZS-1R (MICHIBIKI-1R)   
1 49336U 21096A   26204.54211512 -.00000328  00000+0  00000+0 0  9990
2 49336  37.5340  79.0424 0755622 272.3546 275.8173  1.00242971 17378
ZHONGXING-1D            
1 49505U 21114A   26204.63812704 -.00000331  00000+0  00000+0 0  9993
2 49505   0.0344 226.7739 0000191 100.8501 333.6421  1.00273139 17183
STPSAT-6                
1 49817U 21118A   26204.52241828 -.00000040  00000+0  00000+0 0  9991
2 49817   0.4117  85.0661 0000774 262.0049  30.4299  1.00271261 16937
EXPRESS AMU-7           
1 50001U 21123A   26204.56970499 -.00000238  00000+0  00000+0 0  9990
2 50001   0.0283 277.2862 0000310 101.6296 272.4774  1.00272229 16908
EXPRESS AMU-3           
1 50002U 21123B   26203.87881839 -.00000317  00000+0  00000+0 0  9991
2 50002   0.0084 297.0369 0000176  60.1577   2.7934  1.00272483  7387
TIANLIAN 2-02           
1 50005U 21124A   26203.86200397 -.00000011  00000+0  00000+0 0  9999
2 50005   0.8913  85.5687 0001443 149.0671 187.2502  1.00272928 16971
TURKSAT 5B              
1 50212U 21126A   26204.35669891  .00000151  00000+0  00000+0 0  9998
2 50212   0.0707 338.3290 0002021  20.5146 112.6294  1.00271147 16664
INMARSAT 6-F1           
1 50319U 21128A   26204.55757161  .00000000  00000+0  00000+0 0  9991
2 50319   0.0254  57.9901 0000356  33.2473 134.5291  1.00269400 16620
SHIYAN-12 01 (SY-12 01) 
1 50321U 21129A   26203.26418002  .00000142  00000+0  00000+0 0  9997
2 50321   3.7626  79.4374 0002594 292.5409  54.8525  1.00055591 16846
SHIYAN-12 02 (SY-12 02) 
1 50322U 21129B   26203.53378230 -.00000361  00000+0  00000+0 0  9990
2 50322   3.7622  79.4327 0003285  66.3052 102.4546  1.00474110 16856
TJS-9                   
1 50574U 21135A   26204.63951372 -.00000294  00000+0  00000+0 0  9997
2 50574   0.0656  99.2836 0002383 339.3403 230.2025  1.00269945 16791
GOES 18                 
1 51850U 22021A   26204.51572495  .00000000  00000+0  00000+0 0  9996
2 51850   0.0165  75.4696 0000538  70.2238 204.2110  1.00271259  6955
ZHONGXING-6D            
1 52255U 22038A   26200.82623601  .00000000  00000+0  00000+0 0  9990
2 52255   0.0045 101.1810 0000788  94.3887 164.4279  1.00267596 15751
NILESAT 301             
1 52817U 22061A   26204.32576175 -.00000054  00000+0  00000+0 0  9992
2 52817   0.0515 334.6891 0003688 107.2445 329.3703  1.00270882 15098
CMS-02 (GSAT-24)        
1 52903U 22067A   26204.55748494 -.00000160  00000+0  00000+0 0  9992
2 52903   0.0525 246.9808 0000737 124.7941 213.2029  1.00272606 14979
MEASAT 3D               
1 52904U 22067B   26204.55913162 -.00000237  00000+0  00000+0 0  9994
2 52904   0.0604 291.6936 0000317 185.2645 117.1131  1.00271941 15017
SES-22                  
1 52933U 22071A   26204.51017022  .00000109  00000+0  00000+0 0  9994
2 52933   0.0300 282.8647 0001365 181.3738 241.6531  1.00270287  7882
WFOV (USA 332)          
1 52940U 22073A   26204.54211512 -.00000361  00000+0  00000+0 0  9998
2 52940   3.8013  78.0667 0000865 179.1115 358.5752  1.00273768 14739
TIANLIAN 2-03           
1 53100U 22078A   26204.54315815  .00000076  00000+0  00000+0 0  9995
2 53100   0.7606  77.5721 0000637  33.5433  36.2848  1.00270303 14918
SBIRS GEO-6 (USA 336)   
1 53355U 22092A   26204.58531887 -.00000283  00000+0  00000+0 0  9997
2 53355   3.1976 318.0935 0002060 155.9525 176.9814  1.00271962 14591
EUTELSAT KONNECT VHTS   
1 53765U 22110A   26204.54159814  .00000022  00000+0  00000+0 0  9995
2 53765   0.0580  99.4268 0003054 353.1091  46.4198  1.00272192  7208
ZHONGXING-1E            
1 53813U 22112A   26202.64398459 -.00000148  00000+0  00000+0 0  9990
2 53813   0.0431 226.7079 0000675  37.4095 348.5332  1.00272538 14190
SES-20                  
1 53960U 22123A   26204.28304700 -.00000096  00000+0  00000+0 0  9995
2 53960   0.0132  70.2484 0002329  37.0133 192.5454  1.00271020 13893
SES-21                  
1 53961U 22123B   26204.51017022  .00000074  00000+0  00000+0 0  9995
2 53961   0.0229  35.8178 0000878  90.4612 227.6265  1.00269755  7570
GALAXY 33 (G-33)        
1 54026U 22128A   26204.60232296  .00000084  00000+0  00000+0 0  9996
2 54026   0.0156  17.2912 0002041  96.7538 271.1186  1.00271354 14103
GALAXY 34 (G-34)        
1 54027U 22128B   26204.51551134  .00000064  00000+0  00000+0 0  9990
2 54027   0.0096  46.9851 0001745  68.7858 242.0534  1.00270844 14277
ANGOSAT 2               
1 54033U 22131A   26204.00183547  .00000140  00000+0  00000+0 0  9999
2 54033   0.0178 127.9901 0000237   2.4626 193.9540  1.00273888 13837
